{
  "norad_id": 50470,
  "name": "ONEWEB-0390",
  "history": [
    {
      "epoch": "2026-03-28T20:38:18.974112Z",
      "apogee_km": 1195.1901186029882,
      "perigee_km": 1192.2363398285706,
      "latitude_deg": -1.382129783259637e-05,
      "longitude_deg": -114.0327925555639,
      "height_km": 1196.156155423929,
      "semi_major_axis_km": 7571.850229215779,
      "eccentricity": 0.00019505,
      "inclination_deg": 87.9175,
      "raan_deg": 21.8206,
      "arg_perigee_deg": 72.1604,
      "mean_anomaly_deg": 287.974,
      "mean_motion_rev_day": 13.17649008
    },
    {
      "epoch": "2026-03-29T02:06:21.600000Z",
      "apogee_km": 1195.1874654581234,
      "perigee_km": 1192.2359588301288,
      "latitude_deg": -9.108579745424071e-06,
      "longitude_deg": 163.6865284265508,
      "height_km": 1196.1573720757872,
      "semi_major_axis_km": 7571.848712144126,
      "eccentricity": 0.0001949,
      "inclination_deg": 87.9176,
      "raan_deg": 21.7754,
      "arg_perigee_deg": 72.2576,
      "mean_anomaly_deg": 287.8768,
      "mean_motion_rev_day": 13.17649404
    },
    {
      "epoch": "2026-03-30T01:47:53.091456Z",
      "apogee_km": 1195.1698088073626,
      "perigee_km": 1192.2531327764127,
      "latitude_deg": -1.887535604820269e-05,
      "longitude_deg": 167.13641503236124,
      "height_km": 1196.1544654310926,
      "semi_major_axis_km": 7571.848470791887,
      "eccentricity": 0.0001926,
      "inclination_deg": 87.9177,
      "raan_deg": 21.5795,
      "arg_perigee_deg": 71.9265,
      "mean_anomaly_deg": 288.2076,
      "mean_motion_rev_day": 13.17649467
    }
  ]
}